start=new Date('2022-10-27T00:00:00.000Z').valueOf();
sats=[{"MEAN_MOTION_DOT":"0.00002861","EPHEMERIS_TYPE":"0","GP_ID":"216267391","MEAN_MOTION_DDOT":"0.0000000000000","ECCENTRICITY":"0.00014650","TLE_LINE1":"1 53202U 22084P   22299.73726816  .00002861  00000-0  23222-3 0  9993","REF_FRAME":"TEME","BSTAR":"0.00023222000000","PERIOD":"95.973","INCLINATION":"97.6543","OBJECT_ID":"2022-084P","CENTER_NAME":"EARTH","EPOCH":"2022-10-26T17:41:39.969024","OBJECT_NAME":"STARLINK-4411","NORAD_CAT_ID":"53202","FILE":"3635100","COUNTRY_CODE":"US","ELEMENT_SET_NO":"999","PERIAPSIS":"564.556","MEAN_ANOMALY":"301.5813","APOAPSIS":"566.590","DECAY_DATE":null,"MEAN_ELEMENT_THEORY":"SGP4","TLE_LINE2":"2 53202  97.6543 359.5059 0001465  58.5554 301.5813 15.00429537 14802","MEAN_MOTION":"15.00429537","SITE":"AFWTR","CLASSIFICATION_TYPE":"U","ARG_OF_PERICENTER":"58.5554","SEMIMAJOR_AXIS":"6943.708","RA_OF_ASC_NODE":"359.5059","RCS_SIZE":"LARGE","OBJECT_TYPE":"PAYLOAD","TIME_SYSTEM":"UTC","LAUNCH_DATE":"2022-07-22","REV_AT_EPOCH":"1480"},{"EPOCH":"2022-10-26T18:08:36.197664","OBJECT_NAME":"STARLINK-4409","NORAD_CAT_ID":"53203","BSTAR":"0.00033911000000","REF_FRAME":"TEME","INCLINATION":"97.6544","PERIOD":"95.921","OBJECT_ID":"2022-084Q","CENTER_NAME":"EARTH","ECCENTRICITY":"0.00025300","TLE_LINE1":"1 53203U 22084Q   22299.75597451  .00004297  00000-0  33911-3 0  9998","MEAN_MOTION_DOT":"0.00004297","GP_ID":"216268437","EPHEMERIS_TYPE":"0","MEAN_MOTION_DDOT":"0.0000000000000","ELEMENT_SET_NO":"999","FILE":"3635100","COUNTRY_CODE":"US","MEAN_ELEMENT_THEORY":"SGP4","TLE_LINE2":"2 53203  97.6544 359.1495 0002530 128.8934 231.2516 15.01242578 14786","MEAN_MOTION":"15.01242578","APOAPSIS":"564.822","DECAY_DATE":null,"PERIAPSIS":"561.309","MEAN_ANOMALY":"231.2516","LAUNCH_DATE":"2022-07-22","REV_AT_EPOCH":"1478","RCS_SIZE":"LARGE","RA_OF_ASC_NODE":"359.1495","OBJECT_TYPE":"PAYLOAD","TIME_SYSTEM":"UTC","ARG_OF_PERICENTER":"128.8934","SEMIMAJOR_AXIS":"6941.201","SITE":"AFWTR","CLASSIFICATION_TYPE":"U"},{"NORAD_CAT_ID":"53204","EPOCH":"2022-10-26T18:16:36.257664","OBJECT_NAME":"STARLINK-4410","CENTER_NAME":"EARTH","BSTAR":"0.00039952000000","REF_FRAME":"TEME","PERIOD":"95.920","INCLINATION":"97.6548","OBJECT_ID":"2022-084R","TLE_LINE1":"1 53204U 22084R   22299.76153076  .00005074  00000-0  39952-3 0  9996","ECCENTRICITY":"0.00019800","MEAN_MOTION_DOT":"0.00005074","GP_ID":"216267634","MEAN_MOTION_DDOT":"0.0000000000000","EPHEMERIS_TYPE":"0","ELEMENT_SET_NO":"999","FILE":"3635100","COUNTRY_CODE":"US","MEAN_MOTION":"15.01245131","MEAN_ELEMENT_THEORY":"SGP4","TLE_LINE2":"2 53204  97.6548 359.1545 0001980 110.7336 249.4100 15.01245131 15443","APOAPSIS":"564.432","DECAY_DATE":null,"MEAN_ANOMALY":"249.4100","PERIAPSIS":"561.683","LAUNCH_DATE":"2022-07-22","REV_AT_EPOCH":"1544","TIME_SYSTEM":"UTC","RCS_SIZE":"LARGE","RA_OF_ASC_NODE":"359.1545","OBJECT_TYPE":"PAYLOAD","ARG_OF_PERICENTER":"110.7336","SEMIMAJOR_AXIS":"6941.193","CLASSIFICATION_TYPE":"U","SITE":"AFWTR"},{"CENTER_NAME":"EARTH","PERIOD":"95.918","INCLINATION":"97.6548","OBJECT_ID":"2022-084S","REF_FRAME":"TEME","BSTAR":"0.00145740000000","NORAD_CAT_ID":"53205","EPOCH":"2022-10-26T18:03:17.410176","OBJECT_NAME":"STARLINK-4397","GP_ID":"216268269","MEAN_MOTION_DDOT":"0.0000000000000","EPHEMERIS_TYPE":"0","MEAN_MOTION_DOT":"0.00018720","TLE_LINE1":"1 53205U 22084S   22299.75228484  .00018720  00000-0  14574-2 0  9996","ECCENTRICITY":"0.00023540","ELEMENT_SET_NO":"999","COUNTRY_CODE":"US","FILE":"3635100","DECAY_DATE":null,"APOAPSIS":"564.587","MEAN_MOTION":"15.01278918","TLE_LINE2":"2 53205  97.6548 359.1471 0002354 129.1363 231.0071 15.01278918 14781","MEAN_ELEMENT_THEORY":"SGP4","MEAN_ANOMALY":"231.0071","PERIAPSIS":"561.320","TIME_SYSTEM":"UTC","RA_OF_ASC_NODE":"359.1471","RCS_SIZE":"LARGE","OBJECT_TYPE":"PAYLOAD","REV_AT_EPOCH":"1478","LAUNCH_DATE":"2022-07-22","CLASSIFICATION_TYPE":"U","SITE":"AFWTR","SEMIMAJOR_AXIS":"6941.089","ARG_OF_PERICENTER":"129.1363"},{"NORAD_CAT_ID":"53206","EPOCH":"2022-10-26T18:08:57.809760","OBJECT_NAME":"STARLINK-4408","CENTER_NAME":"EARTH","REF_FRAME":"TEME","BSTAR":"0.00003348700000","PERIOD":"95.920","INCLINATION":"97.6549","OBJECT_ID":"2022-084T","TLE_LINE1":"1 53206U 22084T   22299.75622465  .00000371  00000-0  33487-4 0  9993","ECCENTRICITY":"0.00022250","MEAN_MOTION_DOT":"0.00000371","GP_ID":"216267810","MEAN_MOTION_DDOT":"0.0000000000000","EPHEMERIS_TYPE":"0","ELEMENT_SET_NO":"999","FILE":"3635100","COUNTRY_CODE":"US","MEAN_MOTION":"15.01258364","MEAN_ELEMENT_THEORY":"SGP4","TLE_LINE2":"2 53206  97.6549 359.1496 0002225 116.3498 243.7955 15.01258364 14788","APOAPSIS":"564.561","DECAY_DATE":null,"MEAN_ANOMALY":"243.7955","PERIAPSIS":"561.472","LAUNCH_DATE":"2022-07-22","REV_AT_EPOCH":"1478","TIME_SYSTEM":"UTC","RCS_SIZE":"LARGE","OBJECT_TYPE":"PAYLOAD","RA_OF_ASC_NODE":"359.1496","ARG_OF_PERICENTER":"116.3498","SEMIMAJOR_AXIS":"6941.152","CLASSIFICATION_TYPE":"U","SITE":"AFWTR"},{"MEAN_ELEMENT_THEORY":"SGP4","TLE_LINE2":"2 53207  97.6541 359.1437 0001854 123.8372 236.3029 15.01248222 14789","MEAN_MOTION":"15.01248222","APOAPSIS":"564.335","DECAY_DATE":null,"PERIAPSIS":"561.761","MEAN_ANOMALY":"236.3029","LAUNCH_DATE":"2022-07-22","REV_AT_EPOCH":"1478","RCS_SIZE":"LARGE","OBJECT_TYPE":"PAYLOAD","RA_OF_ASC_NODE":"359.1437","TIME_SYSTEM":"UTC","ARG_OF_PERICENTER":"123.8372","SEMIMAJOR_AXIS":"6941.183","SITE":"AFWTR","CLASSIFICATION_TYPE":"U","EPOCH":"2022-10-26T18:00:36.103104","OBJECT_NAME":"STARLINK-4413","NORAD_CAT_ID":"53207","REF_FRAME":"TEME","BSTAR":"0.00033525000000","PERIOD":"95.920","INCLINATION":"97.6541","OBJECT_ID":"2022-084U","CENTER_NAME":"EARTH","ECCENTRICITY":"0.00018540","TLE_LINE1":"1 53207U 22084U   22299.75041786  .00004248  00000-0  33525-3 0  9994","MEAN_MOTION_DOT":"0.00004248","EPHEMERIS_TYPE":"0","GP_ID":"216268154","MEAN_MOTION_DDOT":"0.0000000000000","ELEMENT_SET_NO":"999","FILE":"3635100","COUNTRY_CODE":"US"},{"OBJECT_ID":"2022-084V","PERIOD":"95.920","INCLINATION":"97.6543","REF_FRAME":"TEME","BSTAR":"0.00028100000000","CENTER_NAME":"EARTH","EPOCH":"2022-10-26T18:11:16.009152","OBJECT_NAME":"STARLINK-4425","NORAD_CAT_ID":"53208","GP_ID":"216267216","EPHEMERIS_TYPE":"0","MEAN_MOTION_DDOT":"0.0000000000000","MEAN_MOTION_DOT":"0.00003551","ECCENTRICITY":"0.00020540","TLE_LINE1":"1 53208U 22084V   22299.75782418  .00003551  00000-0  28100-3 0  9998","ELEMENT_SET_NO":"999","COUNTRY_CODE":"US","FILE":"3635100","APOAPSIS":"564.479","DECAY_DATE":null,"TLE_LINE2":"2 53208  97.6543 359.1512 0002054 123.3731 236.7690 15.01246675 14781","MEAN_ELEMENT_THEORY":"SGP4","MEAN_MOTION":"15.01246675","PERIAPSIS":"561.627","MEAN_ANOMALY":"236.7690","RCS_SIZE":"LARGE","RA_OF_ASC_NODE":"359.1512","OBJECT_TYPE":"PAYLOAD","TIME_SYSTEM":"UTC","REV_AT_EPOCH":"1478","LAUNCH_DATE":"2022-07-22","SITE":"AFWTR","CLASSIFICATION_TYPE":"U","SEMIMAJOR_AXIS":"6941.188","ARG_OF_PERICENTER":"123.3731"},{"EPHEMERIS_TYPE":"0","GP_ID":"216267986","MEAN_MOTION_DDOT":"0.0000000000000","MEAN_MOTION_DOT":"0.00005535","TLE_LINE1":"1 53209U 22084W   22299.74881933  .00005535  00000-0  43522-3 0  9999","ECCENTRICITY":"0.00021930","CENTER_NAME":"EARTH","PERIOD":"95.920","OBJECT_ID":"2022-084W","INCLINATION":"97.6541","REF_FRAME":"TEME","BSTAR":"0.00043522000000","NORAD_CAT_ID":"53209","EPOCH":"2022-10-26T17:58:17.990112","OBJECT_NAME":"STARLINK-4423","COUNTRY_CODE":"US","FILE":"3635100","ELEMENT_SET_NO":"999","MEAN_ANOMALY":"238.6299","PERIAPSIS":"561.506","APOAPSIS":"564.551","DECAY_DATE":null,"MEAN_MOTION":"15.01254659","TLE_LINE2":"2 53209  97.6541 359.1429 0002193 121.5139 238.6299 15.01254659 14780","MEAN_ELEMENT_THEORY":"SGP4","CLASSIFICATION_TYPE":"U","SITE":"AFWTR","SEMIMAJOR_AXIS":"6941.163","ARG_OF_PERICENTER":"121.5139","TIME_SYSTEM":"UTC","RA_OF_ASC_NODE":"359.1429","RCS_SIZE":"LARGE","OBJECT_TYPE":"PAYLOAD","REV_AT_EPOCH":"1478","LAUNCH_DATE":"2022-07-22"},{"ARG_OF_PERICENTER":"103.1565","SEMIMAJOR_AXIS":"6941.148","CLASSIFICATION_TYPE":"U","SITE":"AFWTR","LAUNCH_DATE":"2022-07-22","REV_AT_EPOCH":"1532","TIME_SYSTEM":"UTC","OBJECT_TYPE":"PAYLOAD","RCS_SIZE":"LARGE","RA_OF_ASC_NODE":"359.1471","MEAN_ANOMALY":"256.9854","PERIAPSIS":"561.801","MEAN_MOTION":"15.01259738","MEAN_ELEMENT_THEORY":"SGP4","TLE_LINE2":"2 53210  97.6542 359.1471 0001746 103.1565 256.9854 15.01259738 15326","APOAPSIS":"564.225","DECAY_DATE":null,"FILE":"3635100","COUNTRY_CODE":"US","ELEMENT_SET_NO":"999","TLE_LINE1":"1 53210U 22084X   22299.75411971  .00001166  00000-0  95338-4 0  9992","ECCENTRICITY":"0.00017460","MEAN_MOTION_DOT":"0.00001166","MEAN_MOTION_DDOT":"0.0000000000000","GP_ID":"216267392","EPHEMERIS_TYPE":"0","NORAD_CAT_ID":"53210","EPOCH":"2022-10-26T18:05:55.942944","OBJECT_NAME":"STARLINK-4427","CENTER_NAME":"EARTH","BSTAR":"0.00009533800000","REF_FRAME":"TEME","OBJECT_ID":"2022-084X","PERIOD":"95.919","INCLINATION":"97.6542"},{"FILE":"3635100","COUNTRY_CODE":"US","ELEMENT_SET_NO":"999","MEAN_MOTION_DOT":"0.00004178","GP_ID":"216268438","EPHEMERIS_TYPE":"0","MEAN_MOTION_DDOT":"0.0000000000000","TLE_LINE1":"1 53211U 22084Y   22299.74485764  .00004178  00000-0  32965-3 0  9995","ECCENTRICITY":"0.00021500","CENTER_NAME":"EARTH","REF_FRAME":"TEME","BSTAR":"0.00032965000000","OBJECT_ID":"2022-084Y","PERIOD":"95.919","INCLINATION":"97.6544","NORAD_CAT_ID":"53211","OBJECT_NAME":"STARLINK-4419","EPOCH":"2022-10-26T17:52:35.700096","CLASSIFICATION_TYPE":"U","SITE":"AFWTR","ARG_OF_PERICENTER":"134.7242","SEMIMAJOR_AXIS":"6941.136","TIME_SYSTEM":"UTC","RA_OF_ASC_NODE":"359.1375","RCS_SIZE":"LARGE","OBJECT_TYPE":"PAYLOAD","LAUNCH_DATE":"2022-07-22","REV_AT_EPOCH":"1530","MEAN_ANOMALY":"225.4158","PERIAPSIS":"561.509","DECAY_DATE":null,"APOAPSIS":"564.493","MEAN_MOTION":"15.01263528","MEAN_ELEMENT_THEORY":"SGP4","TLE_LINE2":"2 53211  97.6544 359.1375 0002150 134.7242 225.4158 15.01263528 15302"}];
